{
    "links": {
        "self": "http://www.neowsapp.com/rest/v1/neo/3687156?api_key=iIulBulltgU6a56xZRHN4H3l9WmuAYTsLGpBGhQ2"
    },
    "id": "3687156",
    "neo_reference_id": "3687156",
    "name": "(2014 HC192)",
    "designation": "2014 HC192",
    "nasa_jpl_url": "http://ssd.jpl.nasa.gov/sbdb.cgi?sstr=3687156",
    "absolute_magnitude_h": 26.8,
    "estimated_diameter": {
        "kilometers": {
            "estimated_diameter_min": 0.0116025908,
            "estimated_diameter_max": 0.0259441818
        },
        "meters": {
            "estimated_diameter_min": 11.6025908209,
            "estimated_diameter_max": 25.9441817907
        },
        "miles": {
            "estimated_diameter_min": 0.0072095135,
            "estimated_diameter_max": 0.0161209622
        },
        "feet": {
            "estimated_diameter_min": 38.066244069,
            "estimated_diameter_max": 85.1187093863
        }
    },
    "is_potentially_hazardous_asteroid": false,
    "close_approach_data": [
        {
            "close_approach_date": "1929-05-18",
            "close_approach_date_full": "1929-May-18 03:45",
            "epoch_date_close_approach": -1281989700000,
            "relative_velocity": {
                "kilometers_per_second": "7.9850264525",
                "kilometers_per_hour": "28746.0952289131",
                "miles_per_hour": "17861.7056715433"
            },
            "miss_distance": {
                "astronomical": "0.0829503665",
                "lunar": "32.2676925685",
                "kilometers": "12409198.144119355",
                "miles": "7710718.176002899"
            },
            "orbiting_body": "Earth"
        },
        {
            "close_approach_date": "2014-05-17",
            "close_approach_date_full": "2014-May-17 12:11",
            "epoch_date_close_approach": 1400328660000,
            "relative_velocity": {
                "kilometers_per_second": "6.6879286086",
                "kilometers_per_hour": "24076.5429911064",
                "miles_per_hour": "14960.2275046683"
            },
            "miss_distance": {
                "astronomical": "0.101597968",
                "lunar": "39.521609552",
                "kilometers": "15198839.60912816",
                "miles": "9444121.003402208"
            },
            "orbiting_body": "Earth"
        },
        {
            "close_approach_date": "2014-11-25",
            "close_approach_date_full": "2014-Nov-25 09:08",
            "epoch_date_close_approach": 1416906480000,
            "relative_velocity": {
                "kilometers_per_second": "6.1619572123",
                "kilometers_per_hour": "22183.0459641861",
                "miles_per_hour": "13783.6820881355"
            },
            "miss_distance": {
                "astronomical": "0.3158667027",
                "lunar": "122.8721473503",
                "kilometers": "47252985.927843249",
                "miles": "29361643.9380408762"
            },
            "orbiting_body": "Earth"
        },
        {
            "close_approach_date": "2105-10-25",
            "close_approach_date_full": "2105-Oct-25 12:46",
            "epoch_date_close_approach": 4285917960000,
            "relative_velocity": {
                "kilometers_per_second": "12.5139013875",
                "kilometers_per_hour": "45050.0449949302",
                "miles_per_hour": "27992.3460136554"
            },
            "miss_distance": {
                "astronomical": "0.1818961736",
                "lunar": "70.7576115304",
                "kilometers": "27211280.131710232",
                "miles": "16908305.4253039216"
            },
            "orbiting_body": "Earth"
        }
    ],
    "orbital_data": {
        "orbit_id": "8",
        "orbit_determination_date": "2017-04-06 08:41:09",
        "first_observation_date": "2014-04-24",
        "last_observation_date": "2014-05-04",
        "data_arc_in_days": 10,
        "observations_used": 16,
        "orbit_uncertainty": "9",
        "minimum_orbit_intersection": ".0426552",
        "jupiter_tisserand_invariant": "5.397",
        "epoch_osculation": "2456774.5",
        "eccentricity": ".2158619737280772",
        "semi_major_axis": "1.159260332346317",
        "inclination": "9.880402455725999",
        "ascending_node_longitude": "34.37103453985866",
        "orbital_period": "455.900312579957",
        "perihelion_distance": ".9090201089413746",
        "perihelion_argument": "280.220224273014",
        "aphelion_distance": "1.40950055575126",
        "perihelion_time": "2456867.932748038531",
        "mean_anomaly": "286.2211751873453",
        "mean_motion": ".78964631097256",
        "equinox": "J2000",
        "orbit_class": {
            "orbit_class_type": "APO",
            "orbit_class_description": "Near-Earth asteroid orbits which cross the Earth’s orbit similar to that of 1862 Apollo",
            "orbit_class_range": "a (semi-major axis) > 1.0 AU; q (perihelion) < 1.017 AU"
        }
    },
    "is_sentry_object": false
}